STARLINK-30186
1 57470U 23107P   26090.65704159 -.00008111  00000+0 -45285-3 0  9999
2 57470  42.9989 216.5681 0003292 253.1507 106.8978 15.11923110148459
